[{"OBJECT_NAME":"YAOGAN-30 11C","OBJECT_ID":"2021-065D","EPOCH":"2026-03-09T22:23:40.743744","MEAN_MOTION":15.02147773,"ECCENTRICITY":0.00031824,"INCLINATION":34.9942,"RA_OF_ASC_NODE":157.3601,"ARG_OF_PERICENTER":128.8602,"MEAN_ANOMALY":231.239,"EPHEMERIS_TYPE":0,"CLASSIFICATION_TYPE":"U","NORAD_CAT_ID":49029,"ELEMENT_SET_NO":999,"REV_AT_EPOCH":25372,"BSTAR":0.00028936186,"MEAN_MOTION_DOT":3.857e-5,"MEAN_MOTION_DDOT":0},{"OBJECT_NAME":"STARLINK-35195","OBJECT_ID":"2025-207Q","EPOCH":"2026-03-09T17:40:36.529824","MEAN_MOTION":15.05660827,"ECCENTRICITY":3.381e-5,"INCLINATION":97.6041,"RA_OF_ASC_NODE":138.7907,"ARG_OF_PERICENTER":111.9911,"MEAN_ANOMALY":248.1352,"EPHEMERIS_TYPE":0,"CLASSIFICATION_TYPE":"U","NORAD_CAT_ID":65606,"ELEMENT_SET_NO":999,"REV_AT_EPOCH":2827,"BSTAR":0.00040656138,"MEAN_MOTION_DOT":5.812e-5,"MEAN_MOTION_DDOT":0}]
